STARLINK-30250          
1 57527U 23115G   26068.19241819 -.00006688  00000+0 -23974-3 0  9992
2 57527  42.9981   4.5339 0000478 287.7071  72.3728 15.26761278143176
FLOCK 4G-25             
1 62646U 25009AP  26068.74572546  .00010373  00000+0  38902-3 0  9990
2 62646  97.4049 151.4141 0000828 316.3151  43.8023 15.27424196 63734
